0 COSMOS 1540
1 14783U 84022A   13279.74173287 -.00000080  00000-0  10000-3 0  3920
2 14783 015.8734 353.8951 0011004 133.5174 226.5918 01.00282015 74538
0 COSMOS 1540
1 14783U 84022A   13282.73317222 -.00000087  00000-0  10000-3 0  3930
2 14783 015.8735 353.8625 0010911 133.3898 226.7142 01.00282194 74566
0 COSMOS 1540
1 14783U 84022A   13282.73320943  .00000000  00000-0  10000-3 0  3950
2 14783 015.8741 353.8643 0010784 134.4528 225.6528 01.00277773 74566
0 COSMOS 1540
1 14783U 84022A   13285.72460840 -.00000094  00000-0  10000-3 0  3946
2 14783 015.8735 353.8307 0010656 132.3198 227.7764 01.00282320 74596
0 COSMOS 1540
1 14783U 84022A   13288.71602905 -.00000099  00000-0  10000-3 0  3954
2 14783 015.8737 353.7975 0010682 133.4664 226.6185 01.00282474 74626
0 COSMOS 1540
1 14783U 84022A   13290.71031952 -.00000098  00000-0  10000-3 0  3965
2 14783 015.8740 353.7740 0010893 134.2019 225.8809 01.00282569 74648
0 COSMOS 1540
1 14783U 84022A   13293.70174632 -.00000095  00000-0  10000-3 0  3978
2 14783 015.8740 353.7414 0010759 134.8575 225.2227 01.00282760 74674
